#aV2008  3 19  0  0   .00000000      96 DD+AD WGS84 FIT  NGA
## 1471 259200.00000000   900.00000000 54544  .0000000000000
+   30     2  3  4  5  6  8  9 10 11 12 13 14 15 16 17 18 19
+         20 21 22 23 24 25 26 27 28 29 30 31 32  0  0  0  0
+          0  0  0  0  0  0  0  0  0  0  0  0  0  0  0  0  0
+          0  0  0  0  0  0  0  0  0  0  0  0  0  0  0  0  0
+          0  0  0  0  0  0  0  0  0  0  0  0  0  0  0  0  0
++         0  0  0  0  0  0  0  0  0  0  0  0  0  0  0  0  0
++         0  0  0  0  0  0  0  0  0  0  0  0  0  0  0  0  0
++         0  0  0  0  0  0  0  0  0  0  0  0  0  0  0  0  0
++         0  0  0  0  0  0  0  0  0  0  0  0  0  0  0  0  0
++         0  0  0  0  0  0  0  0  0  0  0  0  0  0  0  0  0
%c cc cc ccc ccc cccc cccc cccc cccc ccccc ccccc ccccc ccccc
%c cc cc ccc ccc cccc cccc cccc cccc ccccc ccccc ccccc ccccc
%f  0.0000000  0.000000000  0.00000000000  0.000000000000000
%f  0.0000000  0.000000000  0.00000000000  0.000000000000000
%i    0    0    0    0      0      0      0      0         0
%i    0    0    0    0      0      0      0      0         0
/*      NGA, ST. LOUIS,MO.                                  
/*   EPHEMERIS COMPUTED FROM  3 DAYS OF DATA                
/* CCCCCCCCCCCCCCCCCCCCCCCCCCCCCCCCCCCCCCCCCCCCCCCCCCCCCCCCC
/* CCCCCCCCCCCCCCCCCCCCCCCCCCCCCCCCCCCCCCCCCCCCCCCCCCCCCCCCC
*  2008  3 19 20 15   .00000000                                                 
P  2  16533.096386    219.189226 -20900.567483    183.472366                    
V  2  -9973.057451  24321.591550  -8035.025615       .031168                    
P  3 -20400.179009  -4833.893939  16252.672117    202.541432                    
V  3 -12064.630258 -17442.392651 -19674.511045       .051505                    
P  4  11102.935120  12030.062863 -20951.660806    -29.355992                    
V  4 -12270.905211  23524.871556   7399.158171      -.072786                    
P  5  12611.628369 -15414.143101 -17767.276215    726.502512                    
V  5  22150.568460  -2015.050338  17878.457740       .113582                    
P  6 -15315.382796 -21640.477844  -1308.794888     69.985822                    
V  6   4064.870835   -747.462272 -31107.225908       .146594                    
P  8   3253.873864  19198.179271  17752.922529   -145.537252                    
V  8 -12050.025485  19470.749705 -19207.122420      -.014412                    
P  9  14242.854760 -20827.719269   7388.982265    115.896092                    
V  9  -1540.042016  10477.220025  30165.219574       .018203                    
P 10  26710.462852   -952.632311  -1049.639252   -321.703017                    
V 10  -1004.655666   2484.044300 -31580.362435      -.471043                    
P 11 -11100.121784  23059.057515   6313.452184     26.790479                    
V 11  -2811.053122  -9357.398648  28880.045780      -.001278                    
P 12  18069.015909 -12106.455250 -15090.929643   -358.264823                    
V 12  19465.365254    369.674987  22949.141949      -.004397                    
P 13   3862.085718  22531.912074 -13659.501177    246.231238                    
V 13 -10273.319478 -13715.315946 -25708.953293       .019632                    
P 14 -15268.333435 -21760.760159  -1113.082111   -286.222006                    
V 14    680.788096  -2281.896135  32277.065131       .038693                    
P 15  14961.446649  -4967.037258  21400.408890    -87.154110                    
V 15  15417.433045  22324.634415  -5599.631605      -.041899                    
P 16 -26027.577230  -1892.596618  -5381.618006    131.075782                    
V 16   6700.736057  -2939.910472 -30747.465844      -.010451                    
P 17  15501.107319  21660.301181   -763.784200     40.881477                    
V 17  -1665.714539   2357.317069  31617.609841      -.005170                    
P 18   -529.895231 -15552.530209  21691.491421   -194.981130                    
V 18  27163.503047  -1188.859797   -539.517157       .033256                    
P 19 -14948.173871   4591.120507  21570.537841     24.710225                    
V 19 -13781.950337 -23428.788114  -4412.255510       .011918                    
P 20 -15791.842427  13605.246317 -16549.388591    118.280338                    
V 20 -20954.167472    112.693738  20277.834042      -.008058                    
P 21   2404.180132 -23642.261147  11382.333095     69.162388                    
V 21   9527.576197 -11428.644894 -26734.084616      -.009330                    
P 22 -15439.614216 -12275.131731  17959.131331    209.811285                    
V 22  22431.002749  -2760.674096  17502.763358       .003031                    
P 23  -7447.855890  14431.443125 -21038.467890    342.033405                    
V 23 -15869.817990 -21331.261634  -9270.193017       .025529                    
P 24  12849.223413 -23411.615084   -592.501481     79.445364                    
V 24   2048.694676   2156.090006 -31389.197983       .030547                    
P 25  -7971.486200  25415.430352   1367.963248     -5.674209                    
V 25  -2851.006083    360.032947 -31640.553396      -.356566                    
P 26  16175.246564    265.311686  20717.775803    211.509722                    
V 26  14277.481863  23133.803248 -10656.963052       .091960                    
P 27  -2191.441194  24639.785667  10122.051221    175.477658                    
V 27  -6466.746765  10274.636459 -28453.507730       .027314                    
P 28  13305.408454  12817.389497  19583.324594    -16.705147                    
V 28 -23834.016477   2476.661536  14527.162214      -.005710                    
P 29   -929.958863 -21221.730300 -15844.287618    -48.348998                    
V 29  12981.852334  15760.941678 -21685.222465       .026552                    
P 30   5867.284523 -15825.484125 -20819.415369     68.373803                    
V 30  25662.948084  -2347.326724   9264.995010       .015633                    
P 31 -11696.907172  -9983.683182 -21434.819038    -13.354368                    
V 31  12013.032660 -24975.116650   5128.582614      -.014131                    
P 32 -25190.729594  -4745.690093   7077.080122    253.071727                    
V 32   8431.554314  -2483.999985  30355.391063       .076690                    
EOF
